QIANFAN-89              
1 63175U 25046S   25326.06455535  .00000103  00000+0  14079-3 0  9997
2 63175  88.9752 322.1795 0016325 178.9419 181.1770 13.50978581 44615
QIANFAN-90              
1 63176U 25046T   25326.01923986  .00000002  00000+0 -14918-4 0  9995
2 63176  88.9750 322.1567 0013356 176.0554 184.0705 13.50974599 44627
QIANFAN-91              
1 66033U 25233A   25326.10882234  .00000384  00000+0  20169-3 0  9994
2 66033  88.9963  64.4211 0018084  99.9154 260.4074 14.12076425  5098
QIANFAN-92              
1 66034U 25233B   25326.11002344  .00000491  00000+0  26029-3 0  9992
2 66034  88.9963  64.4208 0017174 101.2411 259.0705 14.12023394  5099
QIANFAN-93              
1 66035U 25233C   25325.74735237  .00000241  00000+0  12138-3 0  9994
2 66035  88.9993  64.4590 0017613  97.7031 262.6156 14.13119350  5046
QIANFAN-94              
1 66036U 25233D   25325.96431388  .00000455  00000+0  23728-3 0  9993
2 66036  88.9966  64.4371 0016455 101.0931 259.2106 14.12796923  5071
QIANFAN-95              
1 66037U 25233E   25325.98437948  .00000730  00000+0  29857-3 0  9999
2 66037  88.9965  64.4209 0016406 103.5647 256.7375 14.26189765  5084
QIANFAN-96              
1 66038U 25233F   25325.96916972  .00000444  00000+0  23927-3 0  9991
2 66038  88.9966  64.4367 0017539 103.9069 256.4068 14.10959130  5070
